{
"type": "FeatureCollection",
"name": "dcrabt_allr_pvc_line",
"crs": { "type": "name", "properties": { "name": "urn:ogc:def:crs:OGC:1.3:CRS84" } },
"features": [
{ "type": "Feature", "properties": { "Id": 0, "ISOPLETH": 2.1803005, "PERCENT": 20.0 }, "geometry": { "type": "LineString", "coordinates": [ [ -123.991695545071991, 46.005916699001475 ], [ -123.984285193596335, 46.009005276246093 ], [ -123.979433471753254, 46.014628903994307 ], [ -123.975949204080862, 46.023972461736562 ], [ -123.974151975211427, 46.037546446196551 ], [ -123.977096758653119, 46.061743771647173 ], [ -123.989637155018386, 46.100859825501608 ], [ -124.015426086501265, 46.147258548566349 ], [ -124.050018585358146, 46.190340276900017 ], [ -124.057287051686458, 46.196314876275082 ], [ -124.065036631288962, 46.199724248015698 ], [ -124.07500941188502, 46.201106691993985 ], [ -124.084747182617377, 46.200032619470591 ], [ -124.091449068845876, 46.1975356781927 ], [ -124.095420386870074, 46.194236261866209 ], [ -124.096745507994015, 46.190549833065589 ], [ -124.095629829046274, 46.186027120280698 ], [ -124.090678144462885, 46.179799601277132 ], [ -124.072161380295839, 46.162506944250943 ], [ -124.063735206333149, 46.150950508724442 ], [ -124.022087308762423, 46.074747789411717 ], [ -124.016727448417683, 46.059041142526119 ], [ -124.011563301677214, 46.030046061580677 ], [ -124.007341355017786, 46.018331574701008 ], [ -124.00031952788278, 46.008523436307534 ], [ -123.996260568550397, 46.00631866074346 ], [ -123.991695545071991, 46.005916699001475 ] ] } },
{ "type": "Feature", "properties": { "Id": 0, "ISOPLETH": 2.0017033, "PERCENT": 25.0 }, "geometry": { "type": "LineString", "coordinates": [ [ -124.003269436668759, 45.985646520397658 ], [ -123.99075932077001, 45.99007136491322 ], [ -123.97846417504563, 45.998173745237942 ], [ -123.971052586782221, 46.006668920877338 ], [ -123.966623002896981, 46.017731546899874 ], [ -123.964588185311683, 46.034188388436121 ], [ -123.965785511315332, 46.052371539784801 ], [ -123.970103470392459, 46.072324466380429 ], [ -123.977997649648941, 46.09664742824625 ], [ -124.008052324360349, 46.152431629061034 ], [ -124.027652965550445, 46.180499900387652 ], [ -124.041377159770988, 46.196798612583343 ], [ -124.052139323195348, 46.204308047300962 ], [ -124.063909971061719, 46.208268841514652 ], [ -124.078078543263473, 46.209479030267147 ], [ -124.094322446105977, 46.207722611106227 ], [ -124.108466812993697, 46.203474944089237 ], [ -124.118302109839789, 46.197176373762282 ], [ -124.122468926138041, 46.189756009300204 ], [ -124.121599532898173, 46.181580241702456 ], [ -124.116347017142985, 46.173943211757468 ], [ -124.094582339127683, 46.153250646330342 ], [ -124.085019846371267, 46.138963923808994 ], [ -124.056650095204517, 46.083338894699146 ], [ -124.048655635950013, 46.061689254354967 ], [ -124.038935913663494, 46.028306322920102 ], [ -124.021564692279711, 45.992621799135129 ], [ -124.014609380853003, 45.98623277166535 ], [ -124.009626096335921, 45.985157035178332 ], [ -124.003269436668759, 45.985646520397658 ] ] } },
{ "type": "Feature", "properties": { "Id": 0, "ISOPLETH": 1.4067528, "PERCENT": 50.0 }, "geometry": { "type": "LineString", "coordinates": [ [ -124.019417651719451, 45.892153155205726 ], [ -124.014668652297928, 45.896075270420134 ], [ -124.012546756532444, 45.901753964708853 ], [ -124.01518916870296, 45.928840588845325 ], [ -124.010432408318849, 45.943554715213764 ], [ -123.998481025655366, 45.958057344743104 ], [ -123.968518836902632, 45.981090293491818 ], [ -123.957326492295579, 45.992253931678249 ], [ -123.949491978571913, 46.005489978584563 ], [ -123.945752252264185, 46.023134992960713 ], [ -123.945256941133579, 46.037496404427657 ], [ -123.946927657567358, 46.054754718783308 ], [ -123.95576836802141, 46.090517600655481 ], [ -123.966175853938026, 46.115251559474203 ], [ -123.993406148218455, 46.164547628490432 ], [ -124.010374388309316, 46.190444655456176 ], [ -124.02230604245608, 46.204953114684614 ], [ -124.034816662021214, 46.214590059105959 ], [ -124.050486361254457, 46.221130953570082 ], [ -124.063557169424755, 46.223668667968141 ], [ -124.078991426518868, 46.22456087132332 ], [ -124.14920030477208, 46.221822561833804 ], [ -124.163857463171269, 46.223789094429613 ], [ -124.19997379401444, 46.232557005218347 ], [ -124.212803771630902, 46.232726855849634 ], [ -124.224206345203669, 46.230574787749909 ], [ -124.234425513297538, 46.225633192170456 ], [ -124.240043922423226, 46.218878379640621 ], [ -124.241100546822793, 46.210640884698684 ], [ -124.237252631574449, 46.200736715390541 ], [ -124.218776535221892, 46.1758025021648 ], [ -124.206222122065142, 46.152719739993422 ], [ -124.196054952866803, 46.137741841397713 ], [ -124.158404315393867, 46.099099424040389 ], [ -124.146958495470315, 46.084198507021313 ], [ -124.139953846172858, 46.068927878194899 ], [ -124.133831329455873, 46.041786960649667 ], [ -124.128492366977397, 46.025424307975626 ], [ -124.12165882306725, 46.011691129663312 ], [ -124.110494648887538, 45.994663197661673 ], [ -124.099384471012712, 45.980911921048218 ], [ -124.073003556954774, 45.956009533611876 ], [ -124.063180626709268, 45.944683432969775 ], [ -124.057975190872995, 45.934825125845492 ], [ -124.052984306499994, 45.914943568481853 ], [ -124.046995034789177, 45.905424276118914 ], [ -124.040247052412141, 45.899236178961104 ], [ -124.032296130555679, 45.894242683609626 ], [ -124.025776911864611, 45.891856131939818 ], [ -124.019417651719451, 45.892153155205726 ] ] } },
{ "type": "Feature", "properties": { "Id": 0, "ISOPLETH": 1.4067528, "PERCENT": 50.0 }, "geometry": { "type": "LineString", "coordinates": [ [ -124.026758828689992, 45.415998739863426 ], [ -124.01932458326597, 45.421870576237609 ], [ -124.017320183121285, 45.431024662208976 ], [ -124.021907652515679, 45.441047167159446 ], [ -124.025904799314517, 45.444363024558605 ], [ -124.031043377775063, 45.44555332088806 ], [ -124.035987939242887, 45.44347213047007 ], [ -124.039541768222392, 45.439312469165444 ], [ -124.041623141934721, 45.433920031236198 ], [ -124.041830491549391, 45.427548396645335 ], [ -124.039748656183335, 45.42147151753062 ], [ -124.036168522050573, 45.417387665148823 ], [ -124.031795023797031, 45.415497716111958 ], [ -124.026758828689992, 45.415998739863426 ] ] } },
{ "type": "Feature", "properties": { "Id": 0, "ISOPLETH": 1.4067528, "PERCENT": 50.0 }, "geometry": { "type": "LineString", "coordinates": [ [ -124.162784771802848, 44.576886483024204 ], [ -124.153115587486866, 44.58250415516595 ], [ -124.140191676206257, 44.596429103888681 ], [ -124.131006160658089, 44.610163107798378 ], [ -124.125064540370985, 44.6246966240465 ], [ -124.122549010548141, 44.640202731287744 ], [ -124.122535675148058, 44.673939259329117 ], [ -124.117099164304605, 44.712256829000154 ], [ -124.114169526424789, 44.769347970673472 ], [ -124.11216146289847, 44.783027660686301 ], [ -124.088923033579661, 44.851744803319839 ], [ -124.073463493611982, 44.88955295682014 ], [ -124.070595500336808, 44.909618903636691 ], [ -124.069888236210872, 44.947077781767483 ], [ -124.067902232486702, 44.964918981726662 ], [ -124.063406987807639, 44.978487177430779 ], [ -124.048069823680507, 45.008262927576382 ], [ -124.041503484133941, 45.024958087967335 ], [ -124.034402487710423, 45.081237123251746 ], [ -124.029670857037971, 45.092918681244193 ], [ -124.010798412441204, 45.12763757626869 ], [ -124.00552773771291, 45.143244170976715 ], [ -124.002015239085836, 45.160614951187235 ], [ -124.000773033863169, 45.174282657846625 ], [ -124.001855376998421, 45.185154050245139 ], [ -124.015647550653966, 45.221992889618988 ], [ -124.017883533622111, 45.235556943333805 ], [ -124.015969885958427, 45.248600605425253 ], [ -124.003833478786774, 45.284155836941444 ], [ -124.002475510023714, 45.294195605824996 ], [ -124.003335156085569, 45.303259285771574 ], [ -124.007549895463129, 45.314039252747612 ], [ -124.01505462177137, 45.325014007575675 ], [ -124.036747219289154, 45.34957458926494 ], [ -124.040739255342118, 45.352881345681929 ], [ -124.044618288337958, 45.354279937290258 ], [ -124.050865244315688, 45.352940386082473 ], [ -124.071032629216006, 45.342486678085962 ], [ -124.102562741646949, 45.328946910981621 ], [ -124.110903386687895, 45.321764916578559 ], [ -124.115010340571843, 45.313455114505437 ], [ -124.11579679522707, 45.282523738994115 ], [ -124.119108272497073, 45.244244759555158 ], [ -124.128383947513967, 45.175073548143921 ], [ -124.139361135194903, 45.058239661174582 ], [ -124.138224903327895, 45.041931518248106 ], [ -124.128785322323466, 45.015877610445912 ], [ -124.127751526931831, 45.002285123946933 ], [ -124.139981104092399, 44.933782942137739 ], [ -124.143238260720949, 44.907344660479488 ], [ -124.146886131518116, 44.89360827116024 ], [ -124.153569392656479, 44.878868078325752 ], [ -124.177297178698538, 44.842702548084667 ], [ -124.185835846298303, 44.82699517082024 ], [ -124.204303410096415, 44.782825821497077 ], [ -124.207867636845236, 44.770001944527962 ], [ -124.207637425854799, 44.75548478858596 ], [ -124.20010123125131, 44.73303328429796 ], [ -124.199295541743055, 44.723074419814438 ], [ -124.201818012251039, 44.713916657798279 ], [ -124.222835578704874, 44.665136108435242 ], [ -124.224407249910811, 44.656917305251248 ], [ -124.223682434801816, 44.648772830292486 ], [ -124.219192372762478, 44.638027533763797 ], [ -124.189625298338427, 44.58997628706522 ], [ -124.183220181731087, 44.583746183343699 ], [ -124.175408205691639, 44.578735595596306 ], [ -124.169023424178206, 44.576608606784788 ], [ -124.162784771802848, 44.576886483024204 ] ] } },
{ "type": "Feature", "properties": { "Id": 0, "ISOPLETH": 2.6773515, "PERCENT": 10.0 }, "geometry": { "type": "LineString", "coordinates": [ [ -124.226030193616992, 43.795447511653585 ], [ -124.220095013016746, 43.799559763722598 ], [ -124.214408507451637, 43.807777114947442 ], [ -124.207026801810997, 43.828871840313305 ], [ -124.204070755298119, 43.85243327024142 ], [ -124.205735965335535, 43.888641960695587 ], [ -124.203422745661101, 43.903576093630598 ], [ -124.190857208495018, 43.937680536734874 ], [ -124.174649819826413, 43.969532375519663 ], [ -124.168731496010381, 43.986757221051207 ], [ -124.164342655706648, 44.037978182362075 ], [ -124.153937249228221, 44.105948140614437 ], [ -124.153457994992024, 44.125903584689588 ], [ -124.157169854754414, 44.161681492099795 ], [ -124.157512650215111, 44.181014744586776 ], [ -124.156443322757951, 44.201044887013538 ], [ -124.150938600372072, 44.243830168894519 ], [ -124.151090533787752, 44.261958312544074 ], [ -124.154629527428526, 44.276620895375878 ], [ -124.161698931851134, 44.290558395710647 ], [ -124.16967209586241, 44.298788141397758 ], [ -124.178574911483508, 44.301764134395164 ], [ -124.186000827808044, 44.300927515835077 ], [ -124.194548797756198, 44.298054852684587 ], [ -124.246441856021775, 44.274297097493324 ], [ -124.26311531585354, 44.264408797516012 ], [ -124.272911073830656, 44.254440911469644 ], [ -124.277088172226343, 44.243372224050155 ], [ -124.276810389966087, 44.228874645552715 ], [ -124.273477630509376, 44.217197827716937 ], [ -124.260892363360327, 44.188599647888779 ], [ -124.258995417161501, 44.179596243961861 ], [ -124.259326860788363, 44.172333081659858 ], [ -124.262004009889409, 44.164993152174119 ], [ -124.267474538952357, 44.157561592623168 ], [ -124.295491033517024, 44.133070018144885 ], [ -124.298943212433258, 44.127517080724097 ], [ -124.300678665875822, 44.121114492063818 ], [ -124.298752587759992, 44.107581775356863 ], [ -124.278205908625978, 44.044815889849453 ], [ -124.272797228453769, 44.000588481808315 ], [ -124.269452098048788, 43.988012028827185 ], [ -124.259354165841117, 43.97091696031876 ], [ -124.231484685167331, 43.94032614435708 ], [ -124.227343138474666, 43.932306774871705 ], [ -124.224131297891219, 43.920633048798301 ], [ -124.221691036058132, 43.905387878300381 ], [ -124.222450112325816, 43.893753070727556 ], [ -124.238242286292802, 43.853611174777207 ], [ -124.24248193771237, 43.826722099269297 ], [ -124.241267132005134, 43.814652535787168 ], [ -124.237315081657542, 43.803593323055324 ], [ -124.232309174310586, 43.796983123786625 ], [ -124.229647210830507, 43.795510458725396 ], [ -124.226030193616992, 43.795447511653585 ] ] } },
{ "type": "Feature", "properties": { "Id": 0, "ISOPLETH": 2.1803005, "PERCENT": 20.0 }, "geometry": { "type": "LineString", "coordinates": [ [ -124.248347539498369, 43.675067399768295 ], [ -124.243570663584038, 43.677733674873302 ], [ -124.237773394943574, 43.683924426052641 ], [ -124.227341376605565, 43.70313311499342 ], [ -124.211341545619391, 43.764900524958449 ], [ -124.194686174860266, 43.81740966757728 ], [ -124.189463814565499, 43.845454437499157 ], [ -124.18146136214186, 43.90842673910501 ], [ -124.173910739139416, 43.9412864475634 ], [ -124.162600678910295, 43.974268521139216 ], [ -124.159090887165348, 43.988878924774809 ], [ -124.155083135912562, 44.035259362216181 ], [ -124.145155547655065, 44.101696906845788 ], [ -124.143960847141699, 44.122581239716418 ], [ -124.144963003820152, 44.171767956896076 ], [ -124.138538013842364, 44.253291404335158 ], [ -124.144479576710069, 44.311131693591456 ], [ -124.135237023938032, 44.368685851650454 ], [ -124.13296691444279, 44.396741797245831 ], [ -124.13591730574008, 44.409345673716089 ], [ -124.142605960194231, 44.418658045953961 ], [ -124.152321605961419, 44.424495512143501 ], [ -124.166213737672052, 44.427147368129916 ], [ -124.177438459486581, 44.426970387233055 ], [ -124.188579198399324, 44.42541333271754 ], [ -124.210979870630325, 44.417827558222015 ], [ -124.238502767449688, 44.401516750330721 ], [ -124.249014610298445, 44.393011698552861 ], [ -124.25543882048747, 44.385546330457487 ], [ -124.262219129438122, 44.368999595472445 ], [ -124.264857744164274, 44.353495570937397 ], [ -124.263594921409535, 44.33811975230973 ], [ -124.257011665774485, 44.318384305520823 ], [ -124.257738973002887, 44.312012764302018 ], [ -124.261621785172693, 44.306444889950278 ], [ -124.268700972706441, 44.300772209148967 ], [ -124.317363381505913, 44.275320759794639 ], [ -124.324906678427496, 44.269900298100104 ], [ -124.329535863018521, 44.264305874906277 ], [ -124.331850680743216, 44.254254714017378 ], [ -124.326932310375838, 44.223580890483646 ], [ -124.325977199117091, 44.191732439318834 ], [ -124.327166203821633, 44.180065043566124 ], [ -124.333010761401709, 44.167178481262781 ], [ -124.355927928086672, 44.13740357954466 ], [ -124.360277320799426, 44.128192765285654 ], [ -124.362190980895136, 44.119970229593498 ], [ -124.361822901708393, 44.113637343606669 ], [ -124.359343780232962, 44.107375409836813 ], [ -124.342022624471923, 44.082347651875921 ], [ -124.319551399295847, 44.042540272232685 ], [ -124.307525167930066, 44.003064864312037 ], [ -124.303309977349429, 43.993236496989077 ], [ -124.294021344324761, 43.979951602492363 ], [ -124.265428794996353, 43.94646241158182 ], [ -124.260156480915711, 43.937574981001575 ], [ -124.25688820822063, 43.9282987921029 ], [ -124.253850019125395, 43.910600850950125 ], [ -124.253839644288107, 43.895199199077844 ], [ -124.263346070530758, 43.851401328450137 ], [ -124.265909905370862, 43.828669808447223 ], [ -124.264875331865454, 43.814210332084045 ], [ -124.257297275407623, 43.781850992376725 ], [ -124.255514024110951, 43.765010823042516 ], [ -124.25705717719201, 43.737440470845428 ], [ -124.263308440001765, 43.696471980707749 ], [ -124.261957310914525, 43.687506738204178 ], [ -124.25853316353215, 43.680061651838528 ], [ -124.253306616213436, 43.675383137613679 ], [ -124.248347539498369, 43.675067399768295 ] ] } },
{ "type": "Feature", "properties": { "Id": 0, "ISOPLETH": 2.0017033, "PERCENT": 25.0 }, "geometry": { "type": "LineString", "coordinates": [ [ -124.249804154036568, 43.658502299203008 ], [ -124.243903663908952, 43.662967707963993 ], [ -124.237067224447301, 43.672346140435373 ], [ -124.222444169804064, 43.700576366338595 ], [ -124.205085276779926, 43.767645399577447 ], [ -124.191117686485114, 43.814807832702137 ], [ -124.185620972427827, 43.843316493263949 ], [ -124.176568737192255, 43.909490487849034 ], [ -124.169394841113132, 43.942337793461313 ], [ -124.156090808698011, 43.98806894978113 ], [ -124.151894213258856, 44.034863165410421 ], [ -124.142087493832435, 44.100888426098109 ], [ -124.140788381857263, 44.121775989597602 ], [ -124.14118936081104, 44.169803695333776 ], [ -124.134790599455272, 44.251597205677385 ], [ -124.138827266026837, 44.309263219398836 ], [ -124.128079113653513, 44.374123804165102 ], [ -124.126082400972805, 44.400587613838894 ], [ -124.129477915342093, 44.415790849321958 ], [ -124.13757005528565, 44.428293607352032 ], [ -124.14874005156436, 44.435609559325243 ], [ -124.163166857941377, 44.438691970306657 ], [ -124.179346713390757, 44.437837909807136 ], [ -124.196580418023714, 44.433795062133562 ], [ -124.212442828144205, 44.4277760523483 ], [ -124.246442125903002, 44.41226936090014 ], [ -124.261110303708406, 44.407263612767622 ], [ -124.273442712667887, 44.404871690645365 ], [ -124.30072594651638, 44.402085927750534 ], [ -124.31476700119822, 44.399015189034088 ], [ -124.328859520239334, 44.393105878876732 ], [ -124.336589653269826, 44.386499853474625 ], [ -124.340002282651326, 44.376409281117859 ], [ -124.33748186873062, 44.361981617268768 ], [ -124.330194786467516, 44.345899087125872 ], [ -124.313763530611553, 44.319237580779692 ], [ -124.311977227881655, 44.310228262299269 ], [ -124.314713331907427, 44.304696644538431 ], [ -124.320161525519694, 44.299981891414369 ], [ -124.351072131745866, 44.282968526738983 ], [ -124.356827036393454, 44.277252937657387 ], [ -124.360288073169087, 44.27144021197828 ], [ -124.361799156534062, 44.258694870360536 ], [ -124.355663047949463, 44.237138897883831 ], [ -124.354672084759244, 44.227276555652608 ], [ -124.356294505632192, 44.217170665911674 ], [ -124.363335670284783, 44.196081794809572 ], [ -124.362742192813954, 44.170716930972425 ], [ -124.367844291761031, 44.157853739876586 ], [ -124.387027066059986, 44.13087452612568 ], [ -124.390501238930568, 44.121736048774622 ], [ -124.389787380213278, 44.115414813407924 ], [ -124.386490241395379, 44.109180924378201 ], [ -124.363006120128304, 44.085514681857411 ], [ -124.350507630864158, 44.067011587167045 ], [ -124.3334322944077, 44.032229853149985 ], [ -124.322857400784443, 44.000742450893874 ], [ -124.318511822231727, 43.991825089562482 ], [ -124.3108798293093, 43.982110880219125 ], [ -124.279885810434521, 43.950516454383283 ], [ -124.272601159265975, 43.939883639126869 ], [ -124.268020351948309, 43.928881682880672 ], [ -124.264126382055494, 43.911169137347279 ], [ -124.263528736405917, 43.895786719765631 ], [ -124.272684958414459, 43.846564018405388 ], [ -124.274719561348093, 43.823849917636437 ], [ -124.27296629237496, 43.81122598923502 ], [ -124.264737949736713, 43.779794417423339 ], [ -124.263272223101708, 43.760821972313913 ], [ -124.264878279226579, 43.737220583285726 ], [ -124.27052057759893, 43.704430685810117 ], [ -124.271122852531434, 43.692637766548572 ], [ -124.268797015111431, 43.680941879737738 ], [ -124.262747080654464, 43.668225947407656 ], [ -124.25607248125884, 43.660055074759157 ], [ -124.253512864156022, 43.658580325069209 ], [ -124.249804154036568, 43.658502299203008 ] ] } },
{ "type": "Feature", "properties": { "Id": 0, "ISOPLETH": 1.4067528, "PERCENT": 50.0 }, "geometry": { "type": "LineString", "coordinates": [ [ -124.286540082207381, 43.533497982513893 ], [ -124.2735753477711, 43.543142309208356 ], [ -124.257377682231663, 43.560450777248434 ], [ -124.247245249182541, 43.576238487330606 ], [ -124.239746767692111, 43.594841182773621 ], [ -124.224134253873629, 43.657054258671195 ], [ -124.204430510691992, 43.710219554673358 ], [ -124.180026147376452, 43.80722951220995 ], [ -124.17375681414552, 43.83801423796173 ], [ -124.157853666487853, 43.935460195131157 ], [ -124.145140133184356, 43.991137694132682 ], [ -124.141705497906969, 44.030212098222023 ], [ -124.130754746087646, 44.109406292693464 ], [ -124.129414374241307, 44.163832929721536 ], [ -124.123025664532975, 44.242249844969876 ], [ -124.123560210050641, 44.305448312703327 ], [ -124.110226617045797, 44.378415344285337 ], [ -124.10760945523397, 44.40942174552098 ], [ -124.112006433588206, 44.439213008603957 ], [ -124.116152087030216, 44.451008332210407 ], [ -124.122128641285101, 44.462290429727005 ], [ -124.133002366102176, 44.47696911470679 ], [ -124.149041442175232, 44.494341815815119 ], [ -124.156909914791953, 44.500478336893352 ], [ -124.164548653063193, 44.502797861302405 ], [ -124.171967934626636, 44.501491552859946 ], [ -124.181647140848042, 44.496250723593974 ], [ -124.231657478554297, 44.456024108958871 ], [ -124.250953831069054, 44.444907436051565 ], [ -124.268538741467808, 44.4395400637069 ], [ -124.306447626799567, 44.4337032616885 ], [ -124.32735550366786, 44.42864152989457 ], [ -124.414589931793742, 44.40111560521644 ], [ -124.426401879371014, 44.396179728954188 ], [ -124.435904073253241, 44.390339487974103 ], [ -124.443563667193388, 44.381545733041683 ], [ -124.449197423351649, 44.367080609655901 ], [ -124.455170306847506, 44.342592286273657 ], [ -124.460809792354965, 44.304604862699378 ], [ -124.466232672421327, 44.290008538064207 ], [ -124.474459060978191, 44.279868424773298 ], [ -124.508296812592178, 44.250981890424526 ], [ -124.527363647081273, 44.23127726441524 ], [ -124.5412985967439, 44.211749638399759 ], [ -124.552626845442077, 44.187778905386502 ], [ -124.552208628047538, 44.182353415093282 ], [ -124.54919839839495, 44.177022925868435 ], [ -124.543313201951904, 44.171784547431002 ], [ -124.536145597329408, 44.167711664764475 ], [ -124.520689268294532, 44.162749213891402 ], [ -124.492058241289314, 44.159252797477613 ], [ -124.480696644372799, 44.156665079679108 ], [ -124.467896355049533, 44.151048229850467 ], [ -124.458889623687114, 44.143883434043587 ], [ -124.45289948891309, 44.135023316473813 ], [ -124.444432501030505, 44.111586024045472 ], [ -124.437685179060708, 44.099872508692677 ], [ -124.42779325712911, 44.089729281990671 ], [ -124.402622319115906, 44.070565244274505 ], [ -124.391879520403222, 44.057333501285129 ], [ -124.374872878235649, 44.019842583314329 ], [ -124.365365099811314, 43.991162965221783 ], [ -124.359924667590946, 43.980627876578225 ], [ -124.351160011085739, 43.970550888100391 ], [ -124.323227879263186, 43.945750192271113 ], [ -124.316949181653086, 43.93750829102305 ], [ -124.3119046306754, 43.927709283001583 ], [ -124.306992588524665, 43.911563612608063 ], [ -124.304546513459755, 43.89205288762551 ], [ -124.304915410209389, 43.876298477545753 ], [ -124.308200187679404, 43.849916844442973 ], [ -124.313473420571, 43.834340868237149 ], [ -124.330559128467684, 43.812029417580135 ], [ -124.333512509374245, 43.803777911084978 ], [ -124.33236696772876, 43.800192905666847 ], [ -124.328971489403429, 43.796683204768009 ], [ -124.310883353280929, 43.787303404007275 ], [ -124.303269275541766, 43.781235972757663 ], [ -124.297791355369171, 43.7732660458609 ], [ -124.295016090891536, 43.764300603821134 ], [ -124.294488793449332, 43.742260608104338 ], [ -124.298818222386018, 43.706476741806313 ], [ -124.298656109818936, 43.695347442021415 ], [ -124.294987530448111, 43.68369646153311 ], [ -124.27969796657159, 43.653920735945682 ], [ -124.275776869292486, 43.634528425425664 ], [ -124.277339380207977, 43.61584949189313 ], [ -124.284652103090451, 43.583528681688776 ], [ -124.287211976077515, 43.565379311676587 ], [ -124.288623572627955, 43.542434291756599 ], [ -124.288011341177921, 43.53534062658624 ], [ -124.286540082207381, 43.533497982513893 ] ] } },
{ "type": "Feature", "properties": { "Id": 0, "ISOPLETH": 1.4067528, "PERCENT": 50.0 }, "geometry": { "type": "LineString", "coordinates": [ [ -124.374395793287789, 43.382211504177569 ], [ -124.361105142286149, 43.386008071974317 ], [ -124.348095181926098, 43.394327415731205 ], [ -124.336564504847715, 43.406700047519038 ], [ -124.325329087006068, 43.423895615952148 ], [ -124.312162261567195, 43.449748636911643 ], [ -124.298254396116704, 43.483706300243469 ], [ -124.291318733439809, 43.511058162077305 ], [ -124.290522782813056, 43.52004539100998 ], [ -124.292074986054502, 43.523324975196701 ], [ -124.296808412444747, 43.520155067391272 ], [ -124.30372968231606, 43.512519683455565 ], [ -124.322623739972471, 43.485133587944937 ], [ -124.332678486526092, 43.472833440829554 ], [ -124.345533634502132, 43.460682494228386 ], [ -124.371877679192252, 43.440127341568697 ], [ -124.385061338300901, 43.423538330104329 ], [ -124.393138475528005, 43.405160049546531 ], [ -124.394002012321437, 43.39155370265054 ], [ -124.39181229421898, 43.38710286340293 ], [ -124.387364160114956, 43.383634112047901 ], [ -124.381768275385369, 43.382107743927115 ], [ -124.374395793287789, 43.382211504177569 ] ] } },
{ "type": "Feature", "properties": { "Id": 0, "ISOPLETH": 1.0395365, "PERCENT": 75.0 }, "geometry": { "type": "LineString", "coordinates": [ [ -124.382072111909594, 43.367373293688587 ], [ -124.363936308684529, 43.372291328593398 ], [ -124.348427754460261, 43.379938667628075 ], [ -124.335553445547674, 43.390444274304265 ], [ -124.323729745498113, 43.404793678588533 ], [ -124.297844412709892, 43.448201385135093 ], [ -124.283294097951696, 43.478557195296844 ], [ -124.264253804542733, 43.525635126229965 ], [ -124.237524897160597, 43.571503738591716 ], [ -124.228312129797473, 43.597156797170967 ], [ -124.213416571219199, 43.661026321255463 ], [ -124.195756986327609, 43.710501345850027 ], [ -124.170771662345047, 43.812304654326304 ], [ -124.148967487765006, 43.939368980405789 ], [ -124.139250909023033, 43.982995487699341 ], [ -124.134653253207233, 44.029530750217418 ], [ -124.125583134433455, 44.090207874863928 ], [ -124.121829738201669, 44.162260688511743 ], [ -124.115544164641619, 44.23498147507717 ], [ -124.114892368060268, 44.301990091953733 ], [ -124.102182166283583, 44.367387832472822 ], [ -124.097225198515318, 44.403431409554209 ], [ -124.097709006805644, 44.429591307888415 ], [ -124.100833197964334, 44.448921473207164 ], [ -124.105945703684014, 44.46319403700506 ], [ -124.121030039922388, 44.494173343388468 ], [ -124.125868267138003, 44.510349590187559 ], [ -124.128693935531032, 44.537476884232973 ], [ -124.128052686460407, 44.560179020685787 ], [ -124.123735667251779, 44.579369057631254 ], [ -124.109901442487114, 44.613068748753214 ], [ -124.105496054519861, 44.630757220285851 ], [ -124.103756953074367, 44.67103538028563 ], [ -124.097857677979036, 44.714490186660484 ], [ -124.096906715639832, 44.768073649592104 ], [ -124.094267809401742, 44.787408299926923 ], [ -124.077270083221535, 44.84140598544812 ], [ -124.055483637291658, 44.89011015735737 ], [ -124.051715444511245, 44.912019500318358 ], [ -124.047781034609443, 44.963903851474939 ], [ -124.044519388372748, 44.976719119948115 ], [ -124.033106824202619, 45.005225693821508 ], [ -124.028075887607798, 45.021729547033537 ], [ -124.023076834732649, 45.074610249258178 ], [ -124.018481481088841, 45.087428013449234 ], [ -124.00369749989926, 45.113317141000842 ], [ -123.997151808356705, 45.128044294063997 ], [ -123.991673783055305, 45.147299779799127 ], [ -123.988064714790355, 45.170125151825232 ], [ -123.989289755155056, 45.188261718128928 ], [ -123.999495138653216, 45.219758175698573 ], [ -124.001378389046778, 45.23333304364067 ], [ -123.999604288779253, 45.24520182405324 ], [ -123.988947290650572, 45.278244873807225 ], [ -123.98725698256149, 45.300110828308071 ], [ -123.991413711713932, 45.314528915636501 ], [ -124.0057963760501, 45.342273223609155 ], [ -124.008558466980659, 45.355825880520186 ], [ -124.006014459587945, 45.371966180723348 ], [ -123.991726963632402, 45.416343264252831 ], [ -123.990618167218202, 45.427288197900218 ], [ -123.992958580140851, 45.439947797810191 ], [ -124.003120460685096, 45.469649253959851 ], [ -124.004807906795989, 45.485058397107721 ], [ -124.001370596011441, 45.507624531442801 ], [ -123.992028008364173, 45.536379443723241 ], [ -123.988181402671614, 45.582885635230063 ], [ -123.972698702936199, 45.637937549077705 ], [ -123.9695034490192, 45.692627776398986 ], [ -123.970991438068808, 45.706233089752523 ], [ -123.974234114368869, 45.71705615352802 ], [ -123.979354718270457, 45.726002955028804 ], [ -123.994487079335045, 45.74438937283351 ], [ -124.000900169355191, 45.75447751278643 ], [ -124.004943887533372, 45.765277361268652 ], [ -124.005779145647082, 45.777084696449229 ], [ -123.994299678547094, 45.825675787466842 ], [ -123.991620256494656, 45.844874158120923 ], [ -123.989170319424829, 45.892533838301233 ], [ -123.995076260814713, 45.925804828024454 ], [ -123.994553050717158, 45.937658758140948 ], [ -123.991463882146789, 45.945947583443996 ], [ -123.986320843928553, 45.953387516575958 ], [ -123.953100883711542, 45.982612910185445 ], [ -123.945566446747023, 45.991534178523764 ], [ -123.940576804459383, 46.000289800948636 ], [ -123.936779059547831, 46.013154010700113 ], [ -123.935090173527826, 46.030510576062355 ], [ -123.938785679275625, 46.066075155964448 ], [ -123.944114838127007, 46.086723585989198 ], [ -123.951299563764863, 46.106554224699863 ], [ -123.977126555038652, 46.156199642932293 ], [ -124.004036752799053, 46.198837855079859 ], [ -124.013470980660117, 46.209890648522133 ], [ -124.02355337721022, 46.218265177626193 ], [ -124.038052536351827, 46.225818900656542 ], [ -124.05499012160945, 46.230393336352776 ], [ -124.07303956284278, 46.232115156475331 ], [ -124.119195063879843, 46.232253726340339 ], [ -124.136770818602599, 46.233376481205305 ], [ -124.151544362567947, 46.236209107683919 ], [ -124.185425885068028, 46.246000977703105 ], [ -124.208681375546121, 46.248820215405701 ], [ -124.229142576871624, 46.247946881613807 ], [ -124.255765050275741, 46.243868183794149 ], [ -124.274725573837316, 46.238838535483509 ], [ -124.291316682438961, 46.231821926921491 ], [ -124.303198899785869, 46.225057441845685 ], [ -124.311988321037859, 46.218392117350781 ], [ -124.332084272067675, 46.196641731897188 ], [ -124.357121517822733, 46.173169951468999 ], [ -124.359310103544402, 46.166718081762134 ], [ -124.357671205232563, 46.158568777062285 ], [ -124.341842460554801, 46.132954095414739 ], [ -124.337611782435886, 46.122769113927866 ], [ -124.33390610242455, 46.097373989149695 ], [ -124.324621506375124, 46.05940624111426 ], [ -124.316228587840314, 46.046923340744591 ], [ -124.276159227395851, 46.012383068500384 ], [ -124.247757976829149, 45.983034871324925 ], [ -124.222675058341366, 45.946083035617569 ], [ -124.21876044380538, 45.936189174910275 ], [ -124.21643232936654, 45.919870249047626 ], [ -124.209848078735916, 45.910972421638384 ], [ -124.19472505228093, 45.901384337412345 ], [ -124.176453503362197, 45.89470787953767 ], [ -124.161027009634765, 45.892753666179857 ], [ -124.112449619294892, 45.890949627034978 ], [ -124.09952403625725, 45.888121181382772 ], [ -124.086431197788599, 45.882505303338469 ], [ -124.070500682506946, 45.871611545715218 ], [ -124.060633892327104, 45.860077654568165 ], [ -124.053119683136472, 45.842098743695722 ], [ -124.050629865941005, 45.824877479721593 ], [ -124.053919152783664, 45.796556888943861 ], [ -124.063455175798538, 45.754804466106599 ], [ -124.069029373839058, 45.74165360355564 ], [ -124.077153176192169, 45.728620736878618 ], [ -124.084332151568319, 45.721070303488652 ], [ -124.095171608508949, 45.713371626402946 ], [ -124.0981799552561, 45.709139492160254 ], [ -124.110506102074083, 45.652049178972298 ], [ -124.107330522328013, 45.639285858820543 ], [ -124.096076837072445, 45.627175558262572 ], [ -124.093062331699073, 45.621921941906606 ], [ -124.089537299205233, 45.597924518644874 ], [ -124.086802635950988, 45.589881350819461 ], [ -124.067901132688334, 45.564563798619304 ], [ -124.061856835920963, 45.553352296872959 ], [ -124.0588718727235, 45.539799511893897 ], [ -124.059712303677827, 45.522491444494477 ], [ -124.063768901653219, 45.50551548146781 ], [ -124.07054784682235, 45.491661876887967 ], [ -124.079787319273578, 45.480765542073947 ], [ -124.098119473441656, 45.46529232235239 ], [ -124.10439483248048, 45.455114243236942 ], [ -124.107515886709265, 45.436432703003156 ], [ -124.105306267641282, 45.399219316276167 ], [ -124.107300454376812, 45.370061662170293 ], [ -124.112439157917123, 45.357573903803669 ], [ -124.129505568936594, 45.333001770543852 ], [ -124.134682667139103, 45.319202970590588 ], [ -124.135741213386737, 45.308260901753805 ], [ -124.134736335297617, 45.280321446590186 ], [ -124.137160050018124, 45.22731900535549 ], [ -124.15183796908839, 45.083112809562138 ], [ -124.157509727457423, 45.049490690192961 ], [ -124.160974579883657, 45.015176176568367 ], [ -124.179111445952145, 44.949798014955995 ], [ -124.186401408861983, 44.906716835568126 ], [ -124.194817117731418, 44.88619330468407 ], [ -124.213960787227919, 44.852772173694397 ], [ -124.267345094702463, 44.779441882691096 ], [ -124.280460077144085, 44.766395732673956 ], [ -124.300624794971853, 44.750195414461651 ], [ -124.359215580459221, 44.708768431077793 ], [ -124.368903975423947, 44.699368147839984 ], [ -124.373001763748974, 44.691969642801254 ], [ -124.370175449228284, 44.684802595494141 ], [ -124.359298477505547, 44.676764717799152 ], [ -124.345892795352668, 44.670181419061223 ], [ -124.312243288005604, 44.657296749657377 ], [ -124.30271803824985, 44.650734048275929 ], [ -124.30000897639674, 44.642655098737123 ], [ -124.307897707558766, 44.62061469868712 ], [ -124.30784063791873, 44.614264079417417 ], [ -124.305793946164385, 44.608886595503961 ], [ -124.301349327818414, 44.603588097871217 ], [ -124.294775805746667, 44.599266969540338 ], [ -124.264797004150822, 44.587688091723557 ], [ -124.251889679230544, 44.581327536559371 ], [ -124.241852928790209, 44.574389347742233 ], [ -124.233802754725914, 44.566775356545975 ], [ -124.22764054477409, 44.558117992122888 ], [ -124.224875442788147, 44.549824990443767 ], [ -124.226798924924907, 44.520729638646372 ], [ -124.233388383912967, 44.504456766880125 ], [ -124.24669967517309, 44.48923825980296 ], [ -124.262247677843135, 44.477845265438589 ], [ -124.299588898665263, 44.455755600502542 ], [ -124.32869323461567, 44.442434882477151 ], [ -124.363739703883923, 44.428367113803922 ], [ -124.388040583070151, 44.420910633248475 ], [ -124.444603828147464, 44.407525436080718 ], [ -124.460373708690824, 44.401371435311987 ], [ -124.473561082104368, 44.393662839837539 ], [ -124.481009222125493, 44.38705745111772 ], [ -124.485806066157778, 44.379635903510859 ], [ -124.491129624824808, 44.343171551358459 ], [ -124.49526643327539, 44.325796430062844 ], [ -124.501938106836988, 44.31082158330949 ], [ -124.512271036181602, 44.297296635964763 ], [ -124.527585292464408, 44.283791277546442 ], [ -124.544342038318689, 44.273360165449013 ], [ -124.557658398985893, 44.267491443535413 ], [ -124.594169361954783, 44.254558665781651 ], [ -124.613299632391971, 44.24548773192646 ], [ -124.621429845871177, 44.239483861444285 ], [ -124.624138721337289, 44.233314120295773 ], [ -124.622918382498796, 44.227009791134286 ], [ -124.61189704526663, 44.204819169766218 ], [ -124.603278850167584, 44.176928386203798 ], [ -124.59789682973647, 44.166238656548686 ], [ -124.588142485769239, 44.156235570280529 ], [ -124.560776592210303, 44.138534302295987 ], [ -124.551458402538032, 44.127982022410997 ], [ -124.548662311429339, 44.118107769493072 ], [ -124.549295333534005, 44.099048426070603 ], [ -124.54542161832596, 44.090119029431079 ], [ -124.534067231062934, 44.079238757368266 ], [ -124.49841199990496, 44.054981407143103 ], [ -124.489072217771877, 44.044398656731758 ], [ -124.480631381233536, 44.030734916507136 ], [ -124.475499815283783, 44.016286162329152 ], [ -124.471854715843008, 43.980285256586562 ], [ -124.46204070350376, 43.937689436779642 ], [ -124.445395809036782, 43.900665545491385 ], [ -124.443521416421703, 43.891550590684673 ], [ -124.443028053181166, 43.87616475684721 ], [ -124.438929750189502, 43.867245076852107 ], [ -124.433106870604462, 43.860992125827849 ], [ -124.425323413878147, 43.855457883510702 ], [ -124.416405736295587, 43.851535250075244 ], [ -124.408889985734689, 43.850172301015377 ], [ -124.401015901855629, 43.850962812479182 ], [ -124.393833056521785, 43.853965542176653 ], [ -124.375502483848393, 43.870461973831148 ], [ -124.369504372115372, 43.873545003253284 ], [ -124.365784279864741, 43.873474248663697 ], [ -124.361962904815698, 43.87179389337367 ], [ -124.355412641654496, 43.864574518902124 ], [ -124.353244932505532, 43.856563869183098 ], [ -124.355930167378659, 43.849226003285736 ], [ -124.362658736851273, 43.843495742160371 ], [ -124.382642127638547, 43.833513650489422 ], [ -124.389689609161167, 43.828690881437275 ], [ -124.395711764990608, 43.821453125201309 ], [ -124.396335868212304, 43.8143413374791 ], [ -124.389473898643544, 43.8046095631166 ], [ -124.356502748699043, 43.777291708286143 ], [ -124.344492009265466, 43.764150370205719 ], [ -124.339343025793553, 43.751952149937701 ], [ -124.335440871145622, 43.721288656673799 ], [ -124.328294518155175, 43.694358315172373 ], [ -124.32184079716049, 43.685206740577065 ], [ -124.296953549342192, 43.662260863338581 ], [ -124.291446954607608, 43.653971148146319 ], [ -124.287843295180721, 43.644994574444532 ], [ -124.286229089015848, 43.629654472479217 ], [ -124.289112615106987, 43.609638202592279 ], [ -124.30261531507729, 43.559169565649697 ], [ -124.311594814148506, 43.536613411699193 ], [ -124.334212775728162, 43.495865538733923 ], [ -124.34419029620247, 43.481420154967843 ], [ -124.356458720459486, 43.4691241309662 ], [ -124.381650761768356, 43.450286057491937 ], [ -124.391946551167692, 43.439019150363237 ], [ -124.399630689449211, 43.426003459345097 ], [ -124.408988899623722, 43.403713226751556 ], [ -124.411816363075147, 43.387324075417311 ], [ -124.410516622229551, 43.380127744057113 ], [ -124.40761736694995, 43.374422362037933 ], [ -124.403343600987668, 43.370281177622239 ], [ -124.398085593546526, 43.367832320005952 ], [ -124.390640391650535, 43.366757606140631 ], [ -124.382072111909594, 43.367373293688587 ] ] } },
{ "type": "Feature", "properties": { "Id": 0, "ISOPLETH": 1.0395365, "PERCENT": 75.0 }, "geometry": { "type": "LineString", "coordinates": [ [ -124.454461196614943, 43.172437573146127 ], [ -124.446584105655305, 43.18354133974649 ], [ -124.44142138597185, 43.199883427767638 ], [ -124.440647388058551, 43.229043672857117 ], [ -124.442116525740971, 43.234499590598809 ], [ -124.445055369413694, 43.236645334398432 ], [ -124.448660558335391, 43.235440083786749 ], [ -124.452113955132731, 43.231854995706776 ], [ -124.455795939949894, 43.222006342943551 ], [ -124.457829813229722, 43.18664007264131 ], [ -124.456826245501276, 43.175110677129652 ], [ -124.455690177135082, 43.172481301385361 ], [ -124.454461196614943, 43.172437573146127 ] ] } },
{ "type": "Feature", "properties": { "Id": 0, "ISOPLETH": 1.4067528, "PERCENT": 50.0 }, "geometry": { "type": "LineString", "coordinates": [ [ -124.513665964054979, 42.987914017044098 ], [ -124.498039197251785, 43.011210270749537 ], [ -124.489572889868512, 43.031819630035251 ], [ -124.479389420178165, 43.066603588673885 ], [ -124.479942399938793, 43.075504037012955 ], [ -124.484103558742859, 43.080188715190374 ], [ -124.488914549327333, 43.078826035332042 ], [ -124.492878831566983, 43.071433026068654 ], [ -124.498321567225659, 43.046266860347124 ], [ -124.510211844880473, 43.010255737405693 ], [ -124.513665964054979, 42.987914017044098 ] ] } },
{ "type": "Feature", "properties": { "Id": 0, "ISOPLETH": 1.4067528, "PERCENT": 50.0 }, "geometry": { "type": "LineString", "coordinates": [ [ -124.59908499055328, 42.873155137921906 ], [ -124.590779326638824, 42.87685119935454 ], [ -124.577971600186729, 42.886425924857875 ], [ -124.552502037431267, 42.907981732260012 ], [ -124.539906109985253, 42.921436175787782 ], [ -124.531055952787071, 42.935308574221381 ], [ -124.523540185240364, 42.951415508659778 ], [ -124.517575515057956, 42.972672506856675 ], [ -124.517007571594363, 42.982833907507896 ], [ -124.57553224207841, 42.92393474345473 ], [ -124.597141380955705, 42.898591948880998 ], [ -124.604356836902724, 42.887479910653674 ], [ -124.607157189102082, 42.879239769137612 ], [ -124.605254018466837, 42.873869779268048 ], [ -124.59908499055328, 42.873155137921906 ] ] } },
{ "type": "Feature", "properties": { "Id": 0, "ISOPLETH": 1.0395365, "PERCENT": 75.0 }, "geometry": { "type": "LineString", "coordinates": [ [ -124.615580292091977, 42.845471326968585 ], [ -124.601157257263694, 42.848889723677601 ], [ -124.584678231897968, 42.858229098327016 ], [ -124.570762796410079, 42.869502438037287 ], [ -124.536200879001015, 42.901488549138669 ], [ -124.525917017696386, 42.912491171569712 ], [ -124.516930925016183, 42.92472150619956 ], [ -124.496118199296262, 42.962215707452984 ], [ -124.470473259471291, 43.020173955347126 ], [ -124.461067527630803, 43.048254496878734 ], [ -124.456506093958055, 43.069083728087584 ], [ -124.456403718171984, 43.079942538941005 ], [ -124.458760782864701, 43.090946452247046 ], [ -124.475026371175005, 43.129750021875843 ], [ -124.477676986983923, 43.132869545344413 ], [ -124.480140110455096, 43.133058357487435 ], [ -124.484914369701116, 43.131064958300598 ], [ -124.496550561202497, 43.121440868630472 ], [ -124.51014216637428, 43.104187568423455 ], [ -124.519291019703019, 43.089502451815378 ], [ -124.523932409064813, 43.077578396778819 ], [ -124.529602579050376, 43.04843046714543 ], [ -124.539349402948659, 43.015521116238077 ], [ -124.544893848941285, 43.000720174748821 ], [ -124.551433354029555, 42.988714474433124 ], [ -124.568971019721971, 42.966839257178414 ], [ -124.610968417892565, 42.923930998997989 ], [ -124.625747655643821, 42.90479626317061 ], [ -124.634408736284399, 42.890321753158531 ], [ -124.638800871533348, 42.874478730394529 ], [ -124.636715981852774, 42.860084576254941 ], [ -124.633194348645318, 42.853881812516995 ], [ -124.62801658460738, 42.848964995234027 ], [ -124.621736242147406, 42.846151308531468 ], [ -124.615580292091977, 42.845471326968585 ] ] } },
{ "type": "Feature", "properties": { "Id": 0, "ISOPLETH": 1.0395365, "PERCENT": 75.0 }, "geometry": { "type": "LineString", "coordinates": [ [ -124.554050707059545, 42.743678247808241 ], [ -124.550452615679944, 42.744578415515761 ], [ -124.548412701024631, 42.746799286262011 ], [ -124.549427712771859, 42.754711888168799 ], [ -124.555105607684254, 42.759957831950778 ], [ -124.558835938676907, 42.761084967246198 ], [ -124.563695145916384, 42.760820508912126 ], [ -124.568716654525659, 42.757026352764498 ], [ -124.568436395915171, 42.751320966058721 ], [ -124.562727773654188, 42.745920255979534 ], [ -124.554050707059545, 42.743678247808241 ] ] } },
{ "type": "Feature", "properties": { "Id": 0, "ISOPLETH": 1.4067528, "PERCENT": 50.0 }, "geometry": { "type": "LineString", "coordinates": [ [ -124.499189280286174, 42.514957545433042 ], [ -124.478942894606348, 42.526454201952362 ], [ -124.445006239866643, 42.541879189276301 ], [ -124.437387351282183, 42.548033509799978 ], [ -124.432525723051683, 42.555983394223098 ], [ -124.430882108874712, 42.564528298128224 ], [ -124.431293738522101, 42.574455998736163 ], [ -124.439492619670233, 42.613940481214527 ], [ -124.445566625548665, 42.62782849819871 ], [ -124.449509788068028, 42.632464145066088 ], [ -124.454565487462958, 42.635442590096226 ], [ -124.457309020531213, 42.635251855438327 ], [ -124.459252595536924, 42.632595949376956 ], [ -124.461904934628549, 42.611350463522072 ], [ -124.46839181498332, 42.594853384947257 ], [ -124.477053700382456, 42.582136324877808 ], [ -124.498113647936862, 42.557653832553768 ], [ -124.506153524750502, 42.542908543090455 ], [ -124.508786667589959, 42.531965261866048 ], [ -124.508191987186407, 42.5210644602708 ], [ -124.505012522697299, 42.515125891253554 ], [ -124.502787553987631, 42.514235058952991 ], [ -124.499189280286174, 42.514957545433042 ] ] } },
{ "type": "Feature", "properties": { "Id": 0, "ISOPLETH": 1.0395365, "PERCENT": 75.0 }, "geometry": { "type": "LineString", "coordinates": [ [ -124.496377493693018, 42.470873629590351 ], [ -124.484447041621365, 42.474176854483481 ], [ -124.476568042300698, 42.480688396119895 ], [ -124.473887985809611, 42.487108661202903 ], [ -124.471403540905115, 42.504366919549952 ], [ -124.464785126081694, 42.51428221503884 ], [ -124.455796100818432, 42.521181465504988 ], [ -124.432789393392426, 42.534636866779394 ], [ -124.424228970267592, 42.542164616776319 ], [ -124.418342884708281, 42.552310471356336 ], [ -124.416165739168974, 42.565942906801233 ], [ -124.421158292765909, 42.617289087437769 ], [ -124.424481351795251, 42.629828376373965 ], [ -124.430250963632545, 42.641379011265371 ], [ -124.439847233894255, 42.652896316407904 ], [ -124.452691926317115, 42.663535649868741 ], [ -124.479227009283548, 42.678785407896761 ], [ -124.491707264240176, 42.683546833861897 ], [ -124.494253000151161, 42.682655610471542 ], [ -124.49589918739396, 42.679451684335149 ], [ -124.49646455733992, 42.667750580003101 ], [ -124.494443511402096, 42.656308778375191 ], [ -124.485188687904937, 42.62770803171469 ], [ -124.484404727421946, 42.618696375779649 ], [ -124.485612690554774, 42.609499604384759 ], [ -124.492638261474184, 42.592673239923691 ], [ -124.514325908789573, 42.561629674746968 ], [ -124.522999776017826, 42.545926810365529 ], [ -124.532268670385207, 42.519303434544632 ], [ -124.536748211481424, 42.49844039204568 ], [ -124.53381943370178, 42.485892075575464 ], [ -124.525501939343613, 42.476526223206385 ], [ -124.513424838651346, 42.471665085667269 ], [ -124.496377493693018, 42.470873629590351 ] ] } },
{ "type": "Feature", "properties": { "Id": 0, "ISOPLETH": 1.0395365, "PERCENT": 75.0 }, "geometry": { "type": "LineString", "coordinates": [ [ -124.439647181512882, 42.263963665258309 ], [ -124.436083824113098, 42.266107649744946 ], [ -124.43280728163181, 42.270784991638536 ], [ -124.430715041229632, 42.284412774426045 ], [ -124.433320041350868, 42.296969923066499 ], [ -124.4436462391605, 42.320099066077113 ], [ -124.446853330235612, 42.330828693868014 ], [ -124.447613600402306, 42.341644112163571 ], [ -124.445905534656717, 42.365195542427337 ], [ -124.447154711996617, 42.375994441436092 ], [ -124.450501454071272, 42.384009404152842 ], [ -124.456065688681562, 42.390073812121159 ], [ -124.463565344217912, 42.39361439230732 ], [ -124.47086085431178, 42.39391887084949 ], [ -124.479115518860453, 42.39022489612254 ], [ -124.484659256827243, 42.382045000429251 ], [ -124.486556562758167, 42.370995731871318 ], [ -124.484766960394779, 42.357505507419049 ], [ -124.472890130872372, 42.325157262577129 ], [ -124.465970181597655, 42.297433063751143 ], [ -124.459466054113193, 42.27979258663553 ], [ -124.454656291180228, 42.271638722156453 ], [ -124.449477342536696, 42.266290462085912 ], [ -124.444480816067426, 42.26383246698478 ], [ -124.439647181512882, 42.263963665258309 ] ] } },
{ "type": "Feature", "properties": { "Id": 0, "ISOPLETH": 1.0395365, "PERCENT": 75.0 }, "geometry": { "type": "LineString", "coordinates": [ [ -124.330044343400573, 42.015959226203101 ], [ -124.320934493496267, 42.018428513556714 ], [ -124.315930016916298, 42.022781533440295 ], [ -124.315803539750462, 42.028245527500125 ], [ -124.320097233474144, 42.035323442537866 ], [ -124.335806900167412, 42.051038499063871 ], [ -124.349737474285789, 42.061732479626791 ], [ -124.360909984138459, 42.066769053441945 ], [ -124.365779588499734, 42.067440879453393 ], [ -124.370552405386263, 42.066541142086663 ], [ -124.375761461650853, 42.061407356278153 ], [ -124.377356518196478, 42.052321170385177 ], [ -124.374939540737103, 42.039764525166966 ], [ -124.369345528145303, 42.029117757175911 ], [ -124.361789521767605, 42.022211212888664 ], [ -124.353088409100707, 42.018022876773571 ], [ -124.342091970203555, 42.015728111274832 ], [ -124.330044343400573, 42.015959226203101 ] ] } }
]
}
